*******************************************************************************
Ephemeris / WWW_USER Mon Mar 10 06:48:53 2025 Pasadena, USA      / Horizons    
*******************************************************************************
Target body name: (2018 VS8)                      {source: JPL#8}
Center body name: Earth (399)                     {source: DE441}
Center-site name: Mauna Kea
*******************************************************************************
Start time      : A.D. 2018-Oct-04 04:17:00.0000 UT      
Stop  time      : A.D. 2018-Oct-04 16:04:00.0000 UT      
Step-size       : 1 minutes
*******************************************************************************
Target pole/equ : undefined
Target radii    : undefined                                                    
Center geodetic : 204.5278, 19.8260847, 4.21024   {E-lon(deg),Lat(deg),Alt(km)}
Center cylindric: 204.5278, 6006.35451, 2151.0229 {E-lon(deg),Dxy(km),Dz(km)}
Center pole/equ : ITRF93                          {East-longitude positive}
Center radii    : 6378.137, 6378.137, 6356.752 km {Equator_a, b, pole_c}       
Target primary  : Sun
Vis. interferer : MOON (R_eq= 1737.400) km        {source: DE441}
Rel. light bend : Sun                             {source: DE441}
Rel. lght bnd GM: 1.3271E+11 km^3/s^2                                          
Small-body perts: Yes                             {source: SB441-N16}
Atmos refraction: NO (AIRLESS)
RA format       : HMS
Time format     : CAL 
Calendar mode   : Mixed Julian/Gregorian
RTS-only print  : NO       
EOP file        : eop.250307.p250603                                           
EOP coverage    : DATA-BASED 1962-JAN-20 TO 2025-MAR-07. PREDICTS-> 2025-JUN-02
Units conversion: 1 au= 149597870.700 km, c= 299792.458 km/s, 1 day= 86400.0 s 
Table cut-offs 1: Elevation (-90.0deg=NO ),Airmass (>38.000=NO), Daylight (YES)
Table cut-offs 2: Solar elongation (  0.0,180.0=NO ),Local Hour Angle( 0.0=NO )
Table cut-offs 3: RA/DEC angular rate (     0.0=NO )                           
*******************************************************************************
Initial IAU76/J2000 heliocentric ecliptic osculating elements (au, days, deg.):
  EPOCH=  2458433.5 ! 2018-Nov-11.00 (TDB)         Residual RMS= .33953        
   EC= .5263784885368822   QR= .9373233613851428   TP= 2458465.1575556668      
   OM= 53.89076972236643   W=  33.71683445616237   IN= 3.430463171034721       
  Equivalent ICRF heliocentric cartesian coordinates (au, au/d):
   X= 6.888560011548344E-01  Y= 6.928655939663307E-01  Z= 2.929974091538562E-01
  VX=-1.813811938800288E-02 VY= 8.693003909227039E-03 VZ= 5.111678677431928E-03
Asteroid physical parameters (km, seconds, rotational period in hours):        
   GM= n.a.                RAD= n.a.               ROTPER= n.a.                
   H= 27.2                 G= .150                 B-V= n.a.                   
                           ALBEDO= n.a.            STYP= n.a.                  
*******************************************************************************
 Date__(UT)__HR:MN     R.A._________(ICRF)_________DEC
******************************************************
$$SOE
 2018-Oct-04 12:29  m  01 27 26.071365 -02 29 22.62209
 2018-Oct-04 12:30  m  01 27 26.068387 -02 29 22.82810
 2018-Oct-04 12:31  m  01 27 26.065424 -02 29 23.03409
 2018-Oct-04 12:32  m  01 27 26.062475 -02 29 23.24006
 2018-Oct-04 12:33  m  01 27 26.059542 -02 29 23.44601
 2018-Oct-04 12:34  m  01 27 26.056624 -02 29 23.65193
 2018-Oct-04 12:35  m  01 27 26.053722 -02 29 23.85783
 2018-Oct-04 12:36  m  01 27 26.050835 -02 29 24.06372
 2018-Oct-04 12:37  m  01 27 26.047963 -02 29 24.26958
 2018-Oct-04 12:38  m  01 27 26.045108 -02 29 24.47542
 2018-Oct-04 12:39  m  01 27 26.042269 -02 29 24.68124
 2018-Oct-04 12:40  m  01 27 26.039446 -02 29 24.88703
 2018-Oct-04 12:41  m  01 27 26.036639 -02 29 25.09281
 2018-Oct-04 12:42  m  01 27 26.033849 -02 29 25.29857
 2018-Oct-04 12:43  m  01 27 26.031076 -02 29 25.50430
 2018-Oct-04 12:44  m  01 27 26.028319 -02 29 25.71002
 2018-Oct-04 12:45  m  01 27 26.025580 -02 29 25.91571
 2018-Oct-04 12:46  m  01 27 26.022857 -02 29 26.12138
 2018-Oct-04 12:47  m  01 27 26.020152 -02 29 26.32703
 2018-Oct-04 12:48  m  01 27 26.017465 -02 29 26.53266
 2018-Oct-04 12:49  m  01 27 26.014795 -02 29 26.73827
 2018-Oct-04 12:50  m  01 27 26.012143 -02 29 26.94386
 2018-Oct-04 12:51  m  01 27 26.009509 -02 29 27.14943
 2018-Oct-04 12:52  m  01 27 26.006893 -02 29 27.35498
 2018-Oct-04 12:53  m  01 27 26.004295 -02 29 27.56051
 2018-Oct-04 12:54  m  01 27 26.001716 -02 29 27.76602
 2018-Oct-04 12:55  m  01 27 25.999155 -02 29 27.97151
 2018-Oct-04 12:56  m  01 27 25.996613 -02 29 28.17697
 2018-Oct-04 12:57  m  01 27 25.994090 -02 29 28.38242
 2018-Oct-04 12:58  m  01 27 25.991586 -02 29 28.58785
 2018-Oct-04 12:59  m  01 27 25.989101 -02 29 28.79325
 2018-Oct-04 13:00  m  01 27 25.986635 -02 29 28.99864
 2018-Oct-04 13:01  m  01 27 25.984189 -02 29 29.20400
 2018-Oct-04 13:02  m  01 27 25.981763 -02 29 29.40935
 2018-Oct-04 13:03  m  01 27 25.979356 -02 29 29.61468
 2018-Oct-04 13:04  m  01 27 25.976969 -02 29 29.81998
 2018-Oct-04 13:05  m  01 27 25.974603 -02 29 30.02527
 2018-Oct-04 13:06  m  01 27 25.972257 -02 29 30.23054
 2018-Oct-04 13:07  m  01 27 25.969931 -02 29 30.43578
 2018-Oct-04 13:08  m  01 27 25.967625 -02 29 30.64101
 2018-Oct-04 13:09  m  01 27 25.965341 -02 29 30.84622
 2018-Oct-04 13:10  m  01 27 25.963077 -02 29 31.05141
 2018-Oct-04 13:11  m  01 27 25.960834 -02 29 31.25658
 2018-Oct-04 13:12  m  01 27 25.958612 -02 29 31.46172
 2018-Oct-04 13:13  m  01 27 25.956412 -02 29 31.66685
 2018-Oct-04 13:14  m  01 27 25.954233 -02 29 31.87196
 2018-Oct-04 13:15  m  01 27 25.952076 -02 29 32.07706
 2018-Oct-04 13:16  m  01 27 25.949940 -02 29 32.28213
 2018-Oct-04 13:17  m  01 27 25.947826 -02 29 32.48718
 2018-Oct-04 13:18  m  01 27 25.945735 -02 29 32.69221
 2018-Oct-04 13:19  m  01 27 25.943665 -02 29 32.89723
 2018-Oct-04 13:20  m  01 27 25.941618 -02 29 33.10222
 2018-Oct-04 13:21  m  01 27 25.939593 -02 29 33.30720
 2018-Oct-04 13:22  m  01 27 25.937591 -02 29 33.51216
 2018-Oct-04 13:23  m  01 27 25.935611 -02 29 33.71710
 2018-Oct-04 13:24  m  01 27 25.933655 -02 29 33.92202
 2018-Oct-04 13:25  m  01 27 25.931721 -02 29 34.12692
 2018-Oct-04 13:26  m  01 27 25.929811 -02 29 34.33180
 2018-Oct-04 13:27  m  01 27 25.927924 -02 29 34.53666
 2018-Oct-04 13:28  m  01 27 25.926060 -02 29 34.74151
 2018-Oct-04 13:29  m  01 27 25.924220 -02 29 34.94634
 2018-Oct-04 13:30  m  01 27 25.922404 -02 29 35.15114
 2018-Oct-04 13:31  m  01 27 25.920612 -02 29 35.35593
 2018-Oct-04 13:32  m  01 27 25.918843 -02 29 35.56071
 2018-Oct-04 13:33  m  01 27 25.917099 -02 29 35.76546
 2018-Oct-04 13:34  m  01 27 25.915379 -02 29 35.97020
 2018-Oct-04 13:35  m  01 27 25.913683 -02 29 36.17491
 2018-Oct-04 13:36  m  01 27 25.912012 -02 29 36.37961
 2018-Oct-04 13:37  m  01 27 25.910366 -02 29 36.58429
 2018-Oct-04 13:38  m  01 27 25.908745 -02 29 36.78896
 2018-Oct-04 13:39  m  01 27 25.907148 -02 29 36.99360
 2018-Oct-04 13:40  m  01 27 25.905577 -02 29 37.19823
 2018-Oct-04 13:41  m  01 27 25.904031 -02 29 37.40284
 2018-Oct-04 13:42  m  01 27 25.902510 -02 29 37.60743
 2018-Oct-04 13:43  m  01 27 25.901015 -02 29 37.81201
 2018-Oct-04 13:44  m  01 27 25.899546 -02 29 38.01657
 2018-Oct-04 13:45  m  01 27 25.898102 -02 29 38.22111
 2018-Oct-04 13:46  m  01 27 25.896684 -02 29 38.42563
 2018-Oct-04 13:47  m  01 27 25.895292 -02 29 38.63014
 2018-Oct-04 13:48  m  01 27 25.893926 -02 29 38.83462
 2018-Oct-04 13:49  m  01 27 25.892587 -02 29 39.03910
 2018-Oct-04 13:50  m  01 27 25.891274 -02 29 39.24355
 2018-Oct-04 13:51  m  01 27 25.889988 -02 29 39.44799
 2018-Oct-04 13:52  m  01 27 25.888728 -02 29 39.65241
 2018-Oct-04 13:53  m  01 27 25.887495 -02 29 39.85681
 2018-Oct-04 13:54  m  01 27 25.886290 -02 29 40.06120
 2018-Oct-04 13:55  m  01 27 25.885111 -02 29 40.26557
 2018-Oct-04 13:56  m  01 27 25.883959 -02 29 40.46992
 2018-Oct-04 13:57  m  01 27 25.882835 -02 29 40.67426
 2018-Oct-04 13:58  m  01 27 25.881738 -02 29 40.87858
 2018-Oct-04 13:59  m  01 27 25.880669 -02 29 41.08288
 2018-Oct-04 14:00  m  01 27 25.879628 -02 29 41.28717
 2018-Oct-04 14:01  m  01 27 25.878614 -02 29 41.49144
 2018-Oct-04 14:02  m  01 27 25.877628 -02 29 41.69570
 2018-Oct-04 14:03  m  01 27 25.876671 -02 29 41.89993
 2018-Oct-04 14:04  m  01 27 25.875741 -02 29 42.10416
 2018-Oct-04 14:05  m  01 27 25.874840 -02 29 42.30836
 2018-Oct-04 14:06  m  01 27 25.873967 -02 29 42.51256
 2018-Oct-04 14:07  m  01 27 25.873123 -02 29 42.71673
 2018-Oct-04 14:08  m  01 27 25.872308 -02 29 42.92089
 2018-Oct-04 14:09  m  01 27 25.871522 -02 29 43.12503
 2018-Oct-04 14:10  m  01 27 25.870764 -02 29 43.32916
 2018-Oct-04 14:11  m  01 27 25.870035 -02 29 43.53328
 2018-Oct-04 14:12  m  01 27 25.869336 -02 29 43.73737
 2018-Oct-04 14:13  m  01 27 25.868666 -02 29 43.94146
 2018-Oct-04 14:14  m  01 27 25.868025 -02 29 44.14552
 2018-Oct-04 14:15  m  01 27 25.867414 -02 29 44.34957
 2018-Oct-04 14:16  m  01 27 25.866833 -02 29 44.55361
 2018-Oct-04 14:17  m  01 27 25.866281 -02 29 44.75763
 2018-Oct-04 14:18  m  01 27 25.865759 -02 29 44.96164
 2018-Oct-04 14:19  m  01 27 25.865267 -02 29 45.16563
 2018-Oct-04 14:20  m  01 27 25.864805 -02 29 45.36961
 2018-Oct-04 14:21  m  01 27 25.864373 -02 29 45.57357
 2018-Oct-04 14:22  m  01 27 25.863972 -02 29 45.77752
 2018-Oct-04 14:23  m  01 27 25.863601 -02 29 45.98145
 2018-Oct-04 14:24  m  01 27 25.863261 -02 29 46.18537
 2018-Oct-04 14:25  m  01 27 25.862951 -02 29 46.38927
 2018-Oct-04 14:26  m  01 27 25.862673 -02 29 46.59316
 2018-Oct-04 14:27  m  01 27 25.862425 -02 29 46.79704
 2018-Oct-04 14:28  m  01 27 25.862208 -02 29 47.00090
 2018-Oct-04 14:29  m  01 27 25.862022 -02 29 47.20475
 2018-Oct-04 14:30  m  01 27 25.861867 -02 29 47.40858
 2018-Oct-04 14:31  m  01 27 25.861744 -02 29 47.61240
